NUSAT-48 (HENRIETTA LE*)
1 60498U 24149AG  26068.80506098  .00012988  00000+0  45212-3 0  9999
2 60498  97.3923 150.8264 0002754 263.3026  96.7901 15.29812597 86946
STARLINK-34266          
1 65093U 25167R   26068.27083789  .00023320  00000+0  79731-3 0  9999
2 65093  53.1616  28.7498 0001431  92.1443 267.9722 15.30187195 33413
