[{"OBJECT_NAME":"NUSAT-48 (HENRIETTA LEAVITT)","OBJECT_ID":"2024-149AG","EPOCH":"2026-03-09T19:19:17.269536","MEAN_MOTION":15.29812597,"ECCENTRICITY":0.00027538,"INCLINATION":97.3923,"RA_OF_ASC_NODE":150.8264,"ARG_OF_PERICENTER":263.3026,"MEAN_ANOMALY":96.7901,"EPHEMERIS_TYPE":0,"CLASSIFICATION_TYPE":"U","NORAD_CAT_ID":60498,"ELEMENT_SET_NO":999,"REV_AT_EPOCH":8694,"BSTAR":0.00045211745,"MEAN_MOTION_DOT":0.00012988,"MEAN_MOTION_DDOT":0},{"OBJECT_NAME":"STARLINK-34266","OBJECT_ID":"2025-167R","EPOCH":"2026-03-09T06:30:00.393696","MEAN_MOTION":15.30187195,"ECCENTRICITY":0.00014315,"INCLINATION":53.1616,"RA_OF_ASC_NODE":28.7498,"ARG_OF_PERICENTER":92.1443,"MEAN_ANOMALY":267.9722,"EPHEMERIS_TYPE":0,"CLASSIFICATION_TYPE":"U","NORAD_CAT_ID":65093,"ELEMENT_SET_NO":999,"REV_AT_EPOCH":3341,"BSTAR":0.00079730713,"MEAN_MOTION_DOT":0.0002332,"MEAN_MOTION_DDOT":0}]
